OBJECT_NAME,OBJECT_ID,EPOCH,MEAN_MOTION,ECCENTRICITY,INCLINATION,RA_OF_ASC_NODE,ARG_OF_PERICENTER,MEAN_ANOMALY,EPHEMERIS_TYPE,CLASSIFICATION_TYPE,NORAD_CAT_ID,ELEMENT_SET_NO,REV_AT_EPOCH,BSTAR,MEAN_MOTION_DOT,MEAN_MOTION_DDOT
ONEWEB-0406,2021-132T,2026-05-18T01:49:53.927040,13.18687237,.0002221,87.9166,341.4499,99.8206,260.3177,0,U,50486,999,21765,.11581E-3,.59E-6,0
ONEWEB-0407,2021-132U,2026-05-18T01:40:09.467328,13.18685135,.0001742,87.9175,341.4411,80.9857,279.1473,0,U,50487,999,21759,.10767E-3,.55E-6,0
ONEWEB-0409,2021-132V,2026-05-17T23:07:42.806496,13.11418785,.00018621,87.8921,27.0654,89.9634,270.1707,0,U,50488,999,21162,-.48062648E-3,-.158E-5,0
ONEWEB-0412,2021-132W,2026-05-18T03:12:26.813088,13.18687099,.0002044,87.9173,341.4375,80.2217,279.9146,0,U,50489,999,21769,.22051E-3,.1E-5,0
ONEWEB-0413,2021-132X,2026-05-18T01:30:28.010016,13.18686814,.0001939,87.9163,341.4528,79.0067,281.1283,0,U,50490,999,21762,.29441E-5,.14E-6,0
ONEWEB-0414,2021-132Y,2026-05-18T01:08:36.045024,13.18687147,.0002025,87.9169,341.4344,86.0471,274.0893,0,U,50491,999,21765,-.80854E-4,-.19E-6,0
ONEWEB-0417,2021-132Z,2026-05-18T03:10:01.147872,13.18687618,.0001935,87.9165,341.4400,93.8989,266.2364,0,U,50492,999,21764,.13445E-3,.66E-6,0
ONEWEB-0418,2021-132AA,2026-05-18T01:35:06.264672,13.18684690,.0001967,87.9175,341.4499,95.6316,264.5040,0,U,50493,999,21769,-.10139E-3,-.27E-6,0
ONEWEB-0419,2021-132AB,2026-05-18T02:01:12.001152,13.18663816,.0001776,87.9176,341.4459,95.7246,264.4088,0,U,50494,999,21761,-.36996E-4,-.2E-7,0
ONEWEB-0420,2021-132AC,2026-05-18T01:11:01.391424,13.18687584,.0001716,87.9163,341.4586,81.6265,278.5061,0,U,50495,999,21760,.15471E-3,.74E-6,0
ONEWEB-0421,2021-132AD,2026-05-18T01:01:18.924096,13.18685368,.0002228,87.9169,341.4564,84.3576,275.7810,0,U,50496,999,21764,.5779E-4,.36E-6,0
ONEWEB-0424,2021-132AE,2026-05-18T01:54:45.425088,13.18686867,.0001589,87.9174,341.4458,96.4283,263.7030,0,U,50497,999,21767,.41992E-4,.29E-6,0
ONEWEB-0426,2021-132AF,2026-05-18T00:55:17.047200,13.18685781,.0002509,87.9180,341.4454,94.1503,265.9916,0,U,50498,999,21761,.76487E-3,.314E-5,0
ONEWEB-0427,2021-132AG,2026-05-18T01:52:18.774048,13.18686079,.0001995,87.9176,341.4255,93.7178,266.4182,0,U,50499,999,21764,.11472E-3,.58E-6,0
ONEWEB-0429,2021-132AH,2026-05-18T01:32:53.572416,13.18688562,.0001789,87.9166,341.4550,83.4875,276.6461,0,U,50500,999,21761,-.29221E-4,.1E-7,0
ONEWEB-0430,2021-132AJ,2026-05-18T03:05:09.267072,13.18686280,.000158,87.9167,341.4406,86.5110,273.6202,0,U,50501,999,21766,.83948E-4,.46E-6,0
ONEWEB-0432,2021-132AK,2026-05-18T02:03:31.554432,13.18712519,.0001414,87.9174,341.4207,103.4787,256.6503,0,U,50502,999,21761,.10594E-4,.17E-6,0
ONEWEB-0440,2021-132AL,2026-05-18T01:45:02.676096,13.18687331,.0002017,87.9176,341.4455,78.7013,281.4346,0,U,50503,999,21760,.12875E-3,.64E-6,0
ONEWEB-0450,2021-132AM,2026-05-18T01:35:31.910784,13.18687094,.0001707,87.9164,341.4550,82.2400,277.8926,0,U,50504,999,21763,.65628E-4,.39E-6,0
TIANHUI 4A,2021-134A,2026-05-18T03:11:46.337280,15.46068070,.0008238,88.9699,327.0085,167.2279,192.9191,0,U,50572,999,24522,.87152E-4,.4297E-4,0
TIANHUI 4B,2021-134B,2026-05-18T04:45:24.627744,15.46065251,.0007627,88.9696,326.9813,170.8379,189.3021,0,U,50573,999,24520,.9024E-4,.4447E-4,0
TJS-9,2021-135A,2026-05-17T21:51:48.043008,1.00271435,.00040435,0.0588,81.2272,8.7854,250.7998,0,U,50574,999,1612,0,-.293E-5,0
STARLINK-3323,2022-001B,2026-05-17T21:50:07.160640,15.08835428,.00008101,53.2163,208.3808,84.7840,275.3245,0,U,50804,999,24099,.32776933E-4,.234E-5,0
STARLINK-3333,2022-001C,2026-05-17T21:44:50.366400,15.08830280,.00010545,53.2167,208.3958,87.5963,272.5150,0,U,50805,999,24099,.45557297E-4,.437E-5,0
STARLINK-3335,2022-001D,2026-05-17T21:39:31.473504,15.08832726,.00012201,53.2166,208.4146,85.5688,274.5444,0,U,50806,999,24099,-.32101101E-4,-.799E-5,0
STARLINK-3355,2022-001F,2026-05-18T05:25:51.513024,15.08829850,.0001029,53.2164,206.9578,79.9967,280.1141,0,U,50808,999,24104,-.18383E-4,-.58E-5,0
STARLINK-3232,2022-001G,2026-05-17T21:34:13.558656,15.08829886,.000113,53.2164,208.4289,82.6550,277.4571,0,U,50809,999,24099,-.22346188E-4,-.643E-5,0
STARLINK-3338,2022-001K,2026-05-18T04:32:52.418976,15.08838434,.0001009,53.2166,207.2285,76.7201,283.3904,0,U,50812,999,24103,.23331E-4,.84E-6,0
STARLINK-3349,2022-001L,2026-05-18T04:39:09.552384,15.42810630,.0002719,53.2022,156.3546,32.6967,327.4207,0,U,50813,999,24176,.50815E-3,.22252E-3,0
STARLINK-3324,2022-001M,2026-05-17T22:15:17.396352,15.08835014,.00011505,53.2160,218.3018,85.2904,274.8220,0,U,50814,999,24086,.21956474E-4,.62E-6,0
STARLINK-3234,2022-001N,2026-05-18T04:52:44.037408,15.08850610,.0001233,53.2172,217.0627,74.5593,285.5535,0,U,50815,999,24090,.16711E-4,-.22E-6,0
STARLINK-3342,2022-001P,2026-05-17T22:44:11.348448,15.16238927,.00025908,53.2112,213.7137,30.4301,329.6844,0,U,50816,999,24092,.62650504E-3,.1197E-3,0
STARLINK-3341,2022-001Q,2026-05-17T14:28:58.454112,15.08828699,.0001604,53.2189,219.7522,82.9725,277.1449,0,U,50817,999,24081,-.80121E-4,-.1563E-4,0
STARLINK-3336,2022-001R,2026-05-17T21:59:23.193024,15.08841092,.00007288,53.2153,218.3491,63.1239,296.9827,0,U,50818,999,24085,-.7531711E-4,-.1486E-4,0
STARLINK-3327,2022-001S,2026-05-17T22:09:59.377824,15.08834345,.00009841,53.2160,218.3182,82.7021,277.4083,0,U,50819,999,24086,.7074998E-5,-.175E-5,0
STARLINK-3339,2022-001T,2026-05-17T15:21:57.136896,15.08833101,.00009253,53.2157,219.5888,83.7322,276.3776,0,U,50820,999,24081,-.42992268E-4,-.972E-5,0
STARLINK-3346,2022-001U,2026-05-18T05:03:19.087776,15.08831909,.0001002,53.2171,216.9111,97.1021,263.0085,0,U,50821,999,24090,-.61254E-4,-.1262E-4,0
STARLINK-3343,2022-001V,2026-05-18T05:29:49.394688,15.08836043,.0001131,53.2166,216.9478,83.9986,276.1135,0,U,50822,999,24090,-.39116E-4,-.91E-5,0
STARLINK-3334,2022-001W,2026-05-17T11:12:53.699616,15.08829113,.00011709,53.2174,220.3690,93.3511,266.7616,0,U,50823,999,24079,-.14408509E-4,-.517E-5,0
STARLINK-3332,2022-001Y,2026-05-18T05:35:07.281024,15.08835936,.0001051,53.2159,216.9291,87.7025,272.4087,0,U,50825,999,24090,-.26173E-4,-.704E-5,0
STARLINK-3329,2022-001AA,2026-05-18T04:15:37.810944,15.08871825,.0001311,53.2170,217.1791,86.9169,273.1973,0,U,50827,999,24089,-.41305E-3,-.6861E-4,0
STARLINK-3290,2022-001AB,2026-05-18T05:31:09.465888,15.08850112,.0000889,53.2184,216.8383,72.6554,287.4535,0,U,50828,999,24075,.68888E-4,.809E-5,0
STARLINK-3294,2022-001AC,2026-05-17T22:04:41.373984,15.08834325,.00011324,53.2159,218.3338,77.1206,282.9913,0,U,50829,999,24085,-.16999616E-4,-.558E-5,0
STARLINK-3278,2022-001AD,2026-05-18T04:51:24.456096,15.08825731,.0000782,53.2163,227.0671,85.6806,274.4275,0,U,50830,999,24076,-.16464E-4,-.55E-5,0
STARLINK-3299,2022-001AE,2026-05-17T22:47:06.155520,15.08836341,.00012843,53.2169,218.2694,88.8622,271.2518,0,U,50831,999,24086,-.35612558E-4,-.855E-5,0
STARLINK-3328,2022-001AF,2026-05-18T04:52:47.641152,15.08831099,.0000851,53.2167,227.1091,98.4047,261.7041,0,U,50832,999,24076,-.18893E-3,-.3292E-4,0
STARLINK-3331,2022-001AH,2026-05-17T23:44:03.038784,15.08804445,.0001695,53.2213,228.0264,111.7126,248.4047,0,U,50834,999,24072,.25498E-3,.3768E-4,0
STARLINK-3310,2022-001AJ,2026-05-17T23:40:31.200672,15.09534537,.0001255,53.2144,228.0872,62.6195,297.4925,0,U,50835,999,24072,.54604E-3,.8578E-4,0
STARLINK-3330,2022-001AK,2026-05-17T23:18:53.957376,15.08838203,.0001551,53.2178,227.8806,88.9530,271.1640,0,U,50836,999,24062,-.87899E-5,-.428E-5,0
STARLINK-3318,2022-001AL,2026-05-17T22:52:22.954944,15.08835142,.00010663,53.2168,218.1835,85.5510,274.5604,0,U,50837,999,24086,-.25036385E-4,-.686E-5,0
STARLINK-3320,2022-001AN,2026-05-17T15:20:37.423392,15.08840603,.00010444,53.2157,229.5900,80.6708,279.4402,0,U,50839,999,24066,-.37622973E-4,-.886E-5,0
STARLINK-3295,2022-001AP,2026-05-18T05:33:47.784384,15.08838029,.0000982,53.2156,226.9328,86.9945,273.1159,0,U,50840,999,24075,-.15227E-4,-.53E-5,0
STARLINK-3300,2022-001AQ,2026-05-17T23:28:08.750784,15.08838049,.0000691,53.2160,228.0745,78.7636,281.3434,0,U,50841,999,24072,-.34902E-5,-.343E-5,0
STARLINK-3302,2022-001AR,2026-05-18T05:28:29.622432,15.08879691,.0001456,53.2171,226.9502,74.8085,285.3068,0,U,50842,999,24075,-.64324E-3,-.10522E-3,0
STARLINK-3325,2022-001AS,2026-05-18T01:02:25.566144,16.13351844,.0006874,53.2071,186.3232,18.7343,341.3946,0,U,50843,999,24131,.68676E-3,.830788E-2,.42075E-3
STARLINK-3326,2022-001AT,2026-05-17T22:51:03.676896,15.08832009,.00011883,53.2166,228.1924,87.6652,272.4477,0,U,50844,999,24072,-.23753978E-4,-.666E-5,0
STARLINK-3230,2022-001AU,2026-05-17T15:57:43.641216,15.08829863,.00013306,53.2168,229.4776,93.4911,266.6234,0,U,50845,999,24068,-.68295007E-4,-.1374E-4,0
STARLINK-3308,2022-001AV,2026-05-18T05:23:13.504704,15.08837884,.0001088,53.2168,227.0835,81.3178,278.7938,0,U,50846,999,24076,-.2093E-4,-.621E-5,0
STARLINK-3315,2022-001AX,2026-05-18T05:02:00.426624,15.08831520,.0001098,53.2165,227.0338,85.0843,275.0274,0,U,50848,999,24076,-.17981E-4,-.574E-5,0
STARLINK-3311,2022-001AY,2026-05-17T22:56:20.405472,15.08847310,.00012563,53.2169,228.1741,83.4622,276.6513,0,U,50849,999,24072,.93692567E-4,.1204E-4,0
STARLINK-3312,2022-001AZ,2026-05-18T03:47:49.784640,15.08838221,.0001067,53.2159,187.2643,74.0752,286.0358,0,U,50850,999,24185,.4568E-4,.439E-5,0
STARLINK-3314,2022-001BA,2026-05-17T12:52:14.272320,15.08832524,.00011905,53.2152,229.9768,88.9878,271.1251,0,U,50851,999,24066,-.74288093E-4,-.147E-4,0
ION SCV-004,2022-002K,2026-05-18T03:44:00.104064,15.30123302,.0009193,97.2851,196.3823,100.3774,259.8504,0,U,50993,999,24070,.12092E-3,.3454E-4,0
HYPSO-1,2022-002BX,2026-05-18T03:49:05.719008,15.67368744,.000174,97.2850,217.9293,92.6034,267.5426,0,U,51053,999,24220,.3932E-3,.42401E-3,0
ETV-A1,2022-002CE,2026-05-18T04:41:46.159296,15.40004143,.0006901,97.2891,204.6000,96.0462,264.1571,0,U,51060,999,24122,.17614E-3,.695E-4,0
